{
  "type": "FeatureCollection",
  "features": [
    {
      "type": "Feature",
      "properties": {
        "norad_id": 43647,
        "name": "BEIDOU-3 M16 (C35)",
        "group": "gnss",
        "lat": 25.8831796075695,
        "lon": -33.405658498633386,
        "alt_km": 21504.644247215627,
        "timestamp": "2025-12-22T09:53:37.648141+00:00",
        "meta_object_name": "BEIDOU-3 M16 (C35)",
        "meta_object_id": "2018-078A",
        "meta_epoch": "2025-12-21T06:57:26.662752",
        "meta_mean_motion": 1.86232383,
        "meta_eccentricity": 0.00073912,
        "meta_inclination": 54.254,
        "meta_ra_of_asc_node": 306.2225,
        "meta_arg_of_pericenter": 20.1589,
        "meta_mean_anomaly": 339.8673,
        "meta_ephemeris_type": 0,
        "meta_classification_type": "U",
        "meta_norad_cat_id": 43647,
        "meta_element_set_no": 999,
        "meta_rev_at_epoch": 4884,
        "meta_bstar": 0,
        "meta_mean_motion_dot": -6.2e-07,
        "meta_mean_motion_ddot": 0,
        "tle_line1": "1 43647U 18078A   25355.28989193 -.00000062  00000+0  00000+0 0  9994",
        "tle_line2": "2 43647  54.2540 306.2225 0007391  20.1589 339.8673  1.86232383 48840"
      },
      "geometry": {
        "type": "Point",
        "coordinates": [
          -33.405658498633386,
          25.8831796075695
        ]
      }
    },
    {
      "type": "Feature",
      "properties": {
        "norad_id": 43648,
        "name": "BEIDOU-3 M15 (C34)",
        "group": "gnss",
        "lat": -41.157192375241024,
        "lon": -92.81422237870268,
        "alt_km": 21529.598606894884,
        "timestamp": "2025-12-22T09:53:37.648151+00:00",
        "meta_object_name": "BEIDOU-3 M15 (C34)",
        "meta_object_id": "2018-078B",
        "meta_epoch": "2025-12-21T10:03:31.527360",
        "meta_mean_motion": 1.86232375,
        "meta_eccentricity": 0.0004048,
        "meta_inclination": 54.2499,
        "meta_ra_of_asc_node": 306.2186,
        "meta_arg_of_pericenter": 19.7002,
        "meta_mean_anomaly": 340.3131,
        "meta_ephemeris_type": 0,
        "meta_classification_type": "U",
        "meta_norad_cat_id": 43648,
        "meta_element_set_no": 999,
        "meta_rev_at_epoch": 4886,
        "meta_bstar": 0,
        "meta_mean_motion_dot": -6.1e-07,
        "meta_mean_motion_ddot": 0,
        "tle_line1": "1 43648U 18078B   25355.41911490 -.00000061  00000+0  00000+0 0  9994",
        "tle_line2": "2 43648  54.2499 306.2186 0004048  19.7002 340.3131  1.86232375 48869"
      },
      "geometry": {
        "type": "Point",
        "coordinates": [
          -92.81422237870268,
          -41.157192375241024
        ]
      }
    },
    {
      "type": "Feature",
      "properties": {
        "norad_id": 43683,
        "name": "BEIDOU-3 G1 (C59)",
        "group": "gnss",
        "lat": -2.60710730957039,
        "lon": 19.610037545457267,
        "alt_km": 35791.52997377883,
        "timestamp": "2025-12-22T09:53:37.648163+00:00",
        "meta_object_name": "BEIDOU-3 G1 (C59)",
        "meta_object_id": "2018-085A",
        "meta_epoch": "2025-12-22T03:34:38.782272",
        "meta_mean_motion": 1.00267839,
        "meta_eccentricity": 0.0001532,
        "meta_inclination": 2.63,
        "meta_ra_of_asc_node": 102.6901,
        "meta_arg_of_pericenter": 45.1792,
        "meta_mean_anomaly": 136.7491,
        "meta_ephemeris_type": 0,
        "meta_classification_type": "U",
        "meta_norad_cat_id": 43683,
        "meta_element_set_no": 999,
        "meta_rev_at_epoch": 2628,
        "meta_bstar": 0,
        "meta_mean_motion_dot": -2.58e-06,
        "meta_mean_motion_ddot": 0,
        "tle_line1": "1 43683U 18085A   25356.14905998 -.00000258  00000+0  00000+0 0  9996",
        "tle_line2": "2 43683   2.6300 102.6901 0001532  45.1792 136.7491  1.00267839 26280"
      },
      "geometry": {
        "type": "Point",
        "coordinates": [
          19.610037545457267,
          -2.60710730957039
        ]
      }
    },
    {
      "type": "Feature",
      "properties": {
        "norad_id": 43687,
        "name": "COSMOS 2529 (757)",
        "group": "gnss",
        "lat": 58.61905526415927,
        "lon": -33.6429664152028,
        "alt_km": 19137.87519860296,
        "timestamp": "2025-12-22T09:53:37.648176+00:00",
        "meta_object_name": "COSMOS 2529 (757)",
        "meta_object_id": "2018-086A",
        "meta_epoch": "2025-12-21T19:13:53.159808",
        "meta_mean_motion": 2.13102144,
        "meta_eccentricity": 0.0006924,
        "meta_inclination": 64.2925,
        "meta_ra_of_asc_node": 198.5822,
        "meta_arg_of_pericenter": 253.6174,
        "meta_mean_anomaly": 106.3763,
        "meta_ephemeris_type": 0,
        "meta_classification_type": "U",
        "meta_norad_cat_id": 43687,
        "meta_element_set_no": 999,
        "meta_rev_at_epoch": 5550,
        "meta_bstar": 0,
        "meta_mean_motion_dot": 9.6e-07,
        "meta_mean_motion_ddot": 0,
        "tle_line1": "1 43687U 18086A   25355.80130972  .00000096  00000+0  00000+0 0  9994",
        "tle_line2": "2 43687  64.2925 198.5822 0006924 253.6174 106.3763  2.13102144 55501"
      },
      "geometry": {
        "type": "Point",
        "coordinates": [
          -33.6429664152028,
          58.61905526415927
        ]
      }
    },
    {
      "type": "Feature",
      "properties": {
        "norad_id": 43706,
        "name": "BEIDOU-3 M17 (C36)",
        "group": "gnss",
        "lat": -15.61865531233479,
        "lon": 19.95547960513757,
        "alt_km": 21535.89269809152,
        "timestamp": "2025-12-22T09:53:37.648187+00:00",
        "meta_object_name": "BEIDOU-3 M17 (C36)",
        "meta_object_id": "2018-093A",
        "meta_epoch": "2025-12-20T12:04:20.840736",
        "meta_mean_motion": 1.86228485,
        "meta_eccentricity": 0.00060883,
        "meta_inclination": 54.1751,
        "meta_ra_of_asc_node": 188.3582,
        "meta_arg_of_pericenter": 307.8758,
        "meta_mean_anomaly": 51.559,
        "meta_ephemeris_type": 0,
        "meta_classification_type": "U",
        "meta_norad_cat_id": 43706,
        "meta_element_set_no": 999,
        "meta_rev_at_epoch": 4820,
        "meta_bstar": 0,
        "meta_mean_motion_dot": 9.7e-07,
        "meta_mean_motion_ddot": 0,
        "tle_line1": "1 43706U 18093A   25354.50301899  .00000097  00000+0  00000+0 0  9999",
        "tle_line2": "2 43706  54.1751 188.3582 0006088 307.8758  51.5590  1.86228485 48203"
      },
      "geometry": {
        "type": "Point",
        "coordinates": [
          19.95547960513757,
          -15.61865531233479
        ]
      }
    },
    {
      "type": "Feature",
      "properties": {
        "norad_id": 43707,
        "name": "BEIDOU-3 M18 (C37)",
        "group": "gnss",
        "lat": -48.62189247952061,
        "lon": 133.15287251820513,
        "alt_km": 21525.65589900466,
        "timestamp": "2025-12-22T09:53:37.648198+00:00",
        "meta_object_name": "BEIDOU-3 M18 (C37)",
        "meta_object_id": "2018-093B",
        "meta_epoch": "2025-12-20T21:39:28.587744",
        "meta_mean_motion": 1.86226757,
        "meta_eccentricity": 0.00062168,
        "meta_inclination": 54.1741,
        "meta_ra_of_asc_node": 188.3365,
        "meta_arg_of_pericenter": 353.7926,
        "meta_mean_anomaly": 6.2524,
        "meta_ephemeris_type": 0,
        "meta_classification_type": "U",
        "meta_norad_cat_id": 43707,
        "meta_element_set_no": 999,
        "meta_rev_at_epoch": 4821,
        "meta_bstar": 0,
        "meta_mean_motion_dot": 9.5e-07,
        "meta_mean_motion_ddot": 0,
        "tle_line1": "1 43707U 18093B   25354.90241421  .00000095  00000+0  00000+0 0  9996",
        "tle_line2": "2 43707  54.1741 188.3365 0006216 353.7926   6.2524  1.86226757 48217"
      },
      "geometry": {
        "type": "Point",
        "coordinates": [
          133.15287251820513,
          -48.62189247952061
        ]
      }
    },
    {
      "type": "Feature",
      "properties": {
        "norad_id": 43873,
        "name": "GPS BIII-1  (PRN 04)",
        "group": "gnss",
        "lat": -51.86838067526628,
        "lon": 38.421420411246835,
        "alt_km": 20192.263214914576,
        "timestamp": "2025-12-22T09:53:37.648211+00:00",
        "meta_object_name": "GPS BIII-1  (PRN 04)",
        "meta_object_id": "2018-109A",
        "meta_epoch": "2025-12-21T18:06:33.031008",
        "meta_mean_motion": 2.00553985,
        "meta_eccentricity": 0.0037594,
        "meta_inclination": 55.5715,
        "meta_ra_of_asc_node": 99.1915,
        "meta_arg_of_pericenter": 195.3805,
        "meta_mean_anomaly": 336.8667,
        "meta_ephemeris_type": 0,
        "meta_classification_type": "U",
        "meta_norad_cat_id": 43873,
        "meta_element_set_no": 999,
        "meta_rev_at_epoch": 5151,
        "meta_bstar": 0,
        "meta_mean_motion_dot": -1e-08,
        "meta_mean_motion_ddot": 0,
        "tle_line1": "1 43873U 18109A   25355.75454897 -.00000001  00000+0  00000+0 0  9993",
        "tle_line2": "2 43873  55.5715  99.1915 0037594 195.3805 336.8667  2.00553985 51516"
      },
      "geometry": {
        "type": "Point",
        "coordinates": [
          38.421420411246835,
          -51.86838067526628
        ]
      }
    }
  ]
}